     3.02           N: GNSS NAV DATA    E: GALILEO          RINEX VERSION / TYPE
Spider v7.5.1.8670  SMO                 20211209 002223 UTC PGM / RUN BY / DATE
GAL    5.6500D+01  4.4141D-01 -5.9814D-03  0.0000D+00       IONOSPHERIC CORR
GAUT  9.3132257462D-10 0.000000000D+00 259200 2187          TIME SYSTEM CORR
GPGA  7.0431269705D-09 4.884981308D-15 345600 2187          TIME SYSTEM CORR
    18    18  2185     7                                    LEAP SECONDS
                                                            END OF HEADER
E04 2021 12 08 19 00 00-9.165395167656D-04-8.185452315956D-12 0.000000000000D+00
     3.400000000000D+01-8.487500000000D+01 3.177989427172D-09-1.731111130539D+00
    -4.086643457413D-06 9.800237603486D-05 1.044012606144D-05 5.440620389938D+03
     3.276000000000D+05 2.048909664154D-08 1.272711233417D+00 1.862645149231D-08
     9.553479826039D-01 1.180000000000D+02 2.360299429545D+00-5.404153676121D-09
     4.368038986069D-10 5.170000000000D+02 2.187000000000D+03 0.000000000000D+00
     3.120000000000D+00 0.000000000000D+00-2.793967723846D-09-3.026798367500D-09
     3.282640000000D+05
E12 2021 12 08 19 00 00 4.870742210187D-03-1.895728019008D-11 0.000000000000D+00
     3.400000000000D+01 5.121875000000D+01 2.802973853022D-09-2.915521184600D+00
     2.421438694000D-06 2.318299375474D-04 1.631677150726D-06 5.440605976105D+03
     3.276000000000D+05-3.352761268616D-08-8.272699626574D-01 2.607703208923D-08
     9.934120591883D-01 3.205625000000D+02-6.227592509596D-01-5.769883195938D-09
     1.453631937043D-10 5.170000000000D+02 2.187000000000D+03 0.000000000000D+00
     3.120000000000D+00 0.000000000000D+00-1.001171767712D-08-9.778887033463D-09
     3.282850000000D+05
E09 2021 12 08 19 00 00 5.436734703835D-03-1.297451035498D-11 0.000000000000D+00
     3.400000000000D+01-6.590625000000D+01 3.026911832293D-09-8.168591324788D-01
    -3.039836883545D-06 2.361225197092D-04 1.044012606144D-05 5.440628341675D+03
     3.276000000000D+05 5.029141902924D-08 1.268678219895D+00-1.490116119385D-08
     9.612937176276D-01 1.204687500000D+02 6.409886994779D-01-5.391653155424D-09
     4.364467398599D-10 2.580000000000D+02 2.187000000000D+03 0.000000000000D+00
     3.120000000000D+00 0.000000000000D+00 2.095475792885D-09 0.000000000000D+00
     3.283000000000D+05
E04 2021 12 08 19 00 00-9.165387018584D-04-8.171241461241D-12 0.000000000000D+00
     3.400000000000D+01-8.487500000000D+01 3.177989427172D-09-1.731111130539D+00
    -4.086643457413D-06 9.800237603486D-05 1.044012606144D-05 5.440620389938D+03
     3.276000000000D+05 2.048909664154D-08 1.272711233417D+00 1.862645149231D-08
     9.553479826039D-01 1.180000000000D+02 2.360299429545D+00-5.404153676121D-09
     4.368038986069D-10 2.580000000000D+02 2.187000000000D+03 0.000000000000D+00
     3.120000000000D+00 0.000000000000D+00-2.793967723846D-09 0.000000000000D+00
     3.283000000000D+05
E05 2021 12 08 19 00 00-2.279709442519D-04 2.870592652471D-12 0.000000000000D+00
     3.400000000000D+01-6.268750000000D+01 3.142273774515D-09-2.799977594511D+00
    -2.900138497353D-06 1.644778531045D-04 1.092813909054D-05 5.440623376846D+03
     3.276000000000D+05 9.313225746155D-09 1.272620886522D+00-3.352761268616D-08
     9.553189875675D-01 1.029062500000D+02 1.853489370026D+00-5.467370595074D-09
     4.260891639518D-10 2.580000000000D+02 2.187000000000D+03 0.000000000000D+00
     3.120000000000D+00 0.000000000000D+00 3.958120942116D-09 0.000000000000D+00
     3.283000000000D+05
E25 2021 12 08 19 00 00-5.562104051933D-04-1.236344360223D-12 0.000000000000D+00
     3.400000000000D+01 3.303125000000D+01 3.012268434688D-09-2.260814026425D+00
     1.451000571251D-06 3.379280678928D-04 8.782371878624D-06 5.440621276855D+03
     3.276000000000D+05-9.872019290924D-08-2.914340720892D+00-5.587935447693D-08
     9.755645083605D-01 1.559687500000D+02-7.892498555387D-01-5.445583973288D-09
    -5.839528860463D-10 2.580000000000D+02 2.187000000000D+03 0.000000000000D+00
     3.120000000000D+00 0.000000000000D+00 4.423782229424D-09 0.000000000000D+00
     3.283000000000D+05
E24 2021 12 08 19 00 00-1.269061234780D-03-2.064837190119D-11 0.000000000000D+00
     3.400000000000D+01 1.965625000000D+01 3.166203299543D-09-2.619710065714D+00
     9.872019290924D-07 6.211925065145D-04 8.478760719299D-06 5.440608055115D+03
     3.276000000000D+05 5.774199962616D-08-2.909874828447D+00-4.097819328308D-08
     9.734774099501D-01 1.639375000000D+02 3.980729839890D-01-5.517729835595D-09
    -5.300220817794D-10 2.580000000000D+02 2.187000000000D+03 0.000000000000D+00
     3.120000000000D+00 0.000000000000D+00-2.793967723846D-09 0.000000000000D+00
     3.283000000000D+05
E11 2021 12 08 19 00 00 4.931804782245D-03-7.595701845275D-11 0.000000000000D+00
     3.400000000000D+01 3.843750000000D+01 2.729756642950D-09 1.448902580905D+00
     1.788139343262D-06 1.543211983517D-04 9.685754776001D-07 5.440615236282D+03
     3.276000000000D+05 3.725290298462D-09-8.272625954019D-01 1.117587089539D-08
     9.933989543681D-01 3.362500000000D+02 4.854061124158D-01-5.732738791581D-09
     9.821837787527D-11 2.580000000000D+02 2.187000000000D+03 0.000000000000D+00
     3.120000000000D+00 0.000000000000D+00-1.303851604462D-08 0.000000000000D+00
     3.283000000000D+05
E12 2021 12 08 19 00 00 4.870742617641D-03-1.894306933536D-11 0.000000000000D+00
     3.400000000000D+01 5.121875000000D+01 2.802973853022D-09-2.915521184600D+00
     2.421438694000D-06 2.318299375474D-04 1.631677150726D-06 5.440605976105D+03
     3.276000000000D+05-3.352761268616D-08-8.272699626574D-01 2.607703208923D-08
     9.934120591883D-01 3.205625000000D+02-6.227592509596D-01-5.769883195938D-09
     1.453631937043D-10 2.580000000000D+02 2.187000000000D+03 0.000000000000D+00
     3.120000000000D+00 0.000000000000D+00-1.001171767712D-08 0.000000000000D+00
     3.284500000000D+05
E05 2021 12 08 19 10 00-2.279691980220D-04 2.870592652471D-12 0.000000000000D+00
     3.500000000000D+01-6.459375000000D+01 3.128701742128D-09-2.723568005162D+00
    -2.978369593620D-06 1.642531715333D-04 1.082196831703D-05 5.440624172211D+03
     3.282000000000D+05 9.313225746155D-09 1.272617600808D+00-3.352761268616D-08
     9.553192465040D-01 1.055312500000D+02 1.851465052745D+00-5.466656279605D-09
     4.260891639518D-10 5.170000000000D+02 2.187000000000D+03 0.000000000000D+00
     3.120000000000D+00 0.000000000000D+00 3.958120942116D-09 4.423782229424D-09
     3.288550000000D+05
E09 2021 12 08 19 10 00 5.436726438347D-03-1.297451035498D-11 0.000000000000D+00
     3.500000000000D+01-6.712500000000D+01 3.027626149787D-09-7.426370781809D-01
    -3.099441528320D-06 2.359311329201D-04 1.049041748047D-05 5.440627954483D+03
     3.282000000000D+05 5.029141902924D-08 1.268674980994D+00-7.450580596924D-09
     9.612940087483D-01 1.194687500000D+02 6.411512062698D-01-5.387010104880D-09
     4.346609738803D-10 5.170000000000D+02 2.187000000000D+03 0.000000000000D+00
     3.120000000000D+00 0.000000000000D+00 2.095475792885D-09 2.095475792885D-09
     3.288640000000D+05
E11 2021 12 08 19 10 00 4.931757575832D-03-7.594280759804D-11 0.000000000000D+00
     3.500000000000D+01 4.115625000000D+01 2.740471405360D-09 1.525382350823D+00
     1.907348632813D-06 1.545024570078D-04 1.020729541779D-06 5.440614500046D+03
     3.282000000000D+05 3.725290298462D-09-8.272660303336D-01 1.117587089539D-08
     9.933990114220D-01 3.350312500000D+02 4.833111171737D-01-5.733453107050D-09
     9.786121912825D-11 5.170000000000D+02 2.187000000000D+03 0.000000000000D+00
     3.120000000000D+00 0.000000000000D+00-1.303851604462D-08-1.396983861923D-08
     3.288640000000D+05
E25 2021 12 08 19 10 00-5.562113365158D-04-1.236344360223D-12 0.000000000000D+00
     3.500000000000D+01 3.181250000000D+01 3.025125927536D-09-2.186877132896D+00
     1.410022377968D-06 3.379384288564D-04 8.789822459221D-06 5.440620975494D+03
     3.282000000000D+05-8.940696716309D-08-2.914344000754D+00-7.078051567078D-08
     9.755640797255D-01 1.558125000000D+02-7.888018895420D-01-5.455941547579D-09
    -5.764526078700D-10 5.170000000000D+02 2.187000000000D+03 0.000000000000D+00
     3.120000000000D+00 0.000000000000D+00 4.423782229424D-09 4.889443516731D-09
     3.288640000000D+05
E04 2021 12 08 19 10 00-9.165444062091D-04-8.185452315956D-12 0.000000000000D+00
     3.500000000000D+01-8.525000000000D+01 3.174060791977D-09-1.657569336073D+00
    -4.120171070099D-06 9.795522782952D-05 1.038610935211D-05 5.440620199203D+03
     3.282000000000D+05 2.048909664154D-08 1.272707994517D+00 1.862645149231D-08
     9.553482473920D-01 1.186562500000D+02 2.361142692099D+00-5.404153676121D-09
     4.360895811129D-10 5.170000000000D+02 2.187000000000D+03 0.000000000000D+00
     3.120000000000D+00 0.000000000000D+00-2.793967723846D-09-3.026798367500D-09
     3.288640000000D+05
E12 2021 12 08 19 10 00 4.870730801485D-03-1.895728019008D-11 0.000000000000D+00
     3.500000000000D+01 5.112500000000D+01 2.804045440286D-09-2.841199245181D+00
     2.413988113403D-06 2.318387851119D-04 1.639127731323D-06 5.440605941772D+03
     3.282000000000D+05-3.725290298462D-08-8.272734166070D-01 2.235174179077D-08
     9.934121250196D-01 3.204687500000D+02-6.226957325196D-01-5.773097615546D-09
     1.460775111983D-10 5.170000000000D+02 2.187000000000D+03 0.000000000000D+00
     3.120000000000D+00 0.000000000000D+00-1.001171767712D-08-9.778887033463D-09
     3.288850000000D+05
